GLOBALSTAR M068 [-]     
1 32266U 07048D   24019.44467949 -.00000065  00000+0  21803-3 0  9999
2 32266  51.9892  71.3006 0001254 104.3960 357.3677 12.62776712752527
GLOBALSTAR M079 [+]     
1 37188U 10054A   24019.89183737 -.00000082  00000+0  12381-3 0  9997
2 37188  52.0032 265.3860 0000657  67.4143  62.2562 12.62265885611505
GLOBALSTAR M074 [+]     
1 37189U 10054B   24019.90834883 -.00000077  00000+0  14668-3 0  9999
2 37189  52.0009 264.7383 0000938  66.8278  17.6352 12.62264528612119
GLOBALSTAR M076 [+]     
1 37190U 10054C   24019.85475838 -.00000082  00000+0  11995-3 0  9992
2 37190  52.0022 265.0292 0000811  27.2334  51.4544 12.62257904611829
GLOBALSTAR M077 [+]     
1 37191U 10054D   24019.76261390 -.00000080  00000+0  13376-3 0  9992
2 37191  52.0043 222.0151 0001104  78.3976   2.0822 12.62268907612181
GLOBALSTAR M075 [+]     
1 37192U 10054E   24019.94642253 -.00000082  00000+0  12250-3 0  9996
2 37192  51.9966 307.2920 0000493  63.8764  12.0450 12.62269598611069
GLOBALSTAR M073 [+]     
1 37193U 10054F   24019.96177465 -.00000077  00000+0  15087-3 0  9992
2 37193  52.0031 220.6671 0001004  79.5390  68.3812 12.62271751612896
GLOBALSTAR M083 [+]     
1 37739U 11033A   24019.72746005 -.00000078  00000+0  14587-3 0  9997
2 37739  51.9841 170.8134 0001057 112.2769 350.2269 12.62265225581884
GLOBALSTAR M088 [+]     
1 37740U 11033B   24019.92749932 -.00000097  00000+0  37052-4 0  9997
2 37740  51.9739  76.1286 0000652 148.0761 264.4973 12.62264066577455
GLOBALSTAR M091 [+]     
1 37741U 11033C   24019.49030451 -.00000095  00000+0  46703-4 0  9990
2 37741  52.0012  40.0957 0000512 160.8640   3.2826 12.62270240578188
GLOBALSTAR M085 [+]     
1 37742U 11033D   24019.92397692 -.00000086  00000+0  98500-4 0  9994
2 37742  51.9895 350.2704 0000229 111.3549 284.1826 12.62266576578756
GLOBALSTAR M081 [+]     
1 37743U 11033E   24019.95011685 -.00000090  00000+0  76088-4 0  9995
2 37743  51.9987 352.6596 0000065 169.0199 225.6669 12.62268522578908
GLOBALSTAR M089 [+]     
1 37744U 11033F   24019.92663213 -.00000080  00000+0  13347-3 0  9990
2 37744  51.9950 307.0562 0000674  34.5284  74.1001 12.62271580579741
GLOBALSTAR M084 [+]     
1 38040U 11080A   24019.61721537 -.00000085  00000+0  10329-3 0  9994
2 38040  51.9988 175.0123 0000982  80.8524 359.6357 12.62270310557685
GLOBALSTAR M080 [+]     
1 38041U 11080B   24019.92813288 -.00000090  00000+0  74575-4 0  9994
2 38041  52.0039 175.4925 0000824  75.3603  98.2661 12.62268524557847
GLOBALSTAR M082 [+]     
1 38042U 11080C   24019.60891241 -.00000094  00000+0  54755-4 0  9997
2 38042  52.0071 131.8550 0001427 125.4768 337.6803 12.62265199558511
GLOBALSTAR M092 [+]     
1 38043U 11080D   24019.73610825 -.00000087  00000+0  95067-4 0  9992
2 38043  52.0054 221.8227 0001185  74.8444   4.1305 12.62275641556988
GLOBALSTAR M090 [+]     
1 38044U 11080E   24019.47139534 -.00000094  00000+0  51859-4 0  9996
2 38044  51.9884 126.7446 0001014 125.7830 312.9734 12.62265364558619
GLOBALSTAR M086 [+]     
1 38045U 11080F   24019.49847213 -.00000099  00000+0  25745-4 0  9999
2 38045  51.9895 127.1741 0000591 195.8331 245.2113 12.62266516558561
GLOBALSTAR M097 [+]     
1 39072U 13005A   24019.98187365 -.00000091  00000+0  71177-4 0  9990
2 39072  52.0059  39.7238 0000353 157.6575 202.4307 12.62260108505874
GLOBALSTAR M093 [+]     
1 39073U 13005B   24019.32190802 -.00000093  00000+0  59300-4 0  9995
2 39073  51.9825  35.8602 0000475 171.8599 188.2275 12.62260004505741
GLOBALSTAR M094 [+]     
1 39074U 13005C   24019.95556280 -.00000086  00000+0  99751-4 0  9997
2 39074  51.9977 307.8016 0000391  60.5533 299.5372 12.62271151507437
GLOBALSTAR M096 [+]     
1 39075U 13005D   24019.96900071 -.00000088  00000+0  86474-4 0  9990
2 39075  52.0099 355.8741 0000195 137.7947 222.2935 12.62267671506351
GLOBALSTAR M078 [+]     
1 39076U 13005E   24019.62589653 -.00000100  00000+0  23248-4 0  9998
2 39076  51.9877  82.1275 0001572 120.1938 239.9085 12.62257407504931
GLOBALSTAR M095 [+]     
1 39077U 13005F   24019.33517854 -.00000089  00000+0  84677-4 0  9990
2 39077  51.9810  80.4634 0001117 144.2496 215.8445 12.62263093504751
GLOBALSTAR M087 [+]     
1 52888U 22064A   24019.96142074 -.00000084  00000+0  85159-4 0  9998
2 52888  51.9779   8.7204 0009470 348.3395  11.7285 13.37562881 77559
